{
  "norad_id": 64008,
  "name": "STARLINK-34163",
  "history": [
    {
      "epoch": "2026-03-28T20:24:12.206592Z",
      "apogee_km": 483.50526753850954,
      "perigee_km": 482.43713021410804,
      "latitude_deg": -3.4927373320608516e-05,
      "longitude_deg": 117.61122856089197,
      "height_km": 482.7177660511038,
      "semi_major_axis_km": 6861.108198876308,
      "eccentricity": 7.784e-05,
      "inclination_deg": 42.9983,
      "raan_deg": 249.9268,
      "arg_perigee_deg": 273.1566,
      "mean_anomaly_deg": 86.9196,
      "mean_motion_rev_day": 15.27606015
    },
    {
      "epoch": "2026-03-30T10:03:58.004640Z",
      "apogee_km": 484.7827966496998,
      "perigee_km": 481.20718632365697,
      "latitude_deg": -1.2637475704172943e-05,
      "longitude_deg": -97.74312494856952,
      "height_km": 482.5570886870521,
      "semi_major_axis_km": 6861.131991486678,
      "eccentricity": 0.00026057,
      "inclination_deg": 43.0019,
      "raan_deg": 241.06,
      "arg_perigee_deg": 276.9307,
      "mean_anomaly_deg": 83.1248,
      "mean_motion_rev_day": 15.27598069
    },
    {
      "epoch": "2026-03-30T19:28:54.084576Z",
      "apogee_km": 483.9433818364514,
      "perigee_km": 482.0311864984533,
      "latitude_deg": -1.4686120256499736e-06,
      "longitude_deg": 118.42193697663367,
      "height_km": 482.8733523084399,
      "semi_major_axis_km": 6861.124284167452,
      "eccentricity": 0.00013935,
      "inclination_deg": 43.0023,
      "raan_deg": 238.8454,
      "arg_perigee_deg": 263.4453,
      "mean_anomaly_deg": 96.624,
      "mean_motion_rev_day": 15.27600643
    },
    {
      "epoch": "2026-03-31T17:27:05.397984Z",
      "apogee_km": 484.18941124290905,
      "perigee_km": 481.7935051853001,
      "latitude_deg": -1.9493350876504915e-05,
      "longitude_deg": 142.8025117880281,
      "height_km": 482.6107700317145,
      "semi_major_axis_km": 6861.128458214104,
      "eccentricity": 0.0001746,
      "inclination_deg": 43.0026,
      "raan_deg": 233.6754,
      "arg_perigee_deg": 277.5774,
      "mean_anomaly_deg": 82.4879,
      "mean_motion_rev_day": 15.27599249
    },
    {
      "epoch": "2026-04-01T15:25:16.866048Z",
      "apogee_km": 484.7315301879653,
      "perigee_km": 481.3023254548398,
      "latitude_deg": 4.066030684759364e-05,
      "longitude_deg": 167.1879237316092,
      "height_km": 482.47205992636754,
      "semi_major_axis_km": 6861.153927821402,
      "eccentricity": 0.0002499,
      "inclination_deg": 43.0063,
      "raan_deg": 228.5108,
      "arg_perigee_deg": 280.8621,
      "mean_anomaly_deg": 79.195,
      "mean_motion_rev_day": 15.27590743
    },
    {
      "epoch": "2026-04-02T18:05:56.187456Z",
      "apogee_km": 483.75729791305,
      "perigee_km": 482.14686308407636,
      "latitude_deg": 3.289298735729729e-05,
      "longitude_deg": 119.64596756043606,
      "height_km": 482.9310763624168,
      "semi_major_axis_km": 6861.089080498563,
      "eccentricity": 0.00011736,
      "inclination_deg": 43.003,
      "raan_deg": 222.2283,
      "arg_perigee_deg": 255.4553,
      "mean_anomaly_deg": 104.6169,
      "mean_motion_rev_day": 15.276124
    },
    {
      "epoch": "2026-04-03T17:38:17.817216Z",
      "apogee_km": 484.4741369275589,
      "perigee_km": 481.969740914853,
      "latitude_deg": -6.431575430798143e-05,
      "longitude_deg": 120.05181361563456,
      "height_km": 482.71489142459,
      "semi_major_axis_km": 6861.358938921206,
      "eccentricity": 0.0001825,
      "inclination_deg": 43.0046,
      "raan_deg": 216.6911,
      "arg_perigee_deg": 283.1378,
      "mean_anomaly_deg": 76.9269,
      "mean_motion_rev_day": 15.27522279
    },
    {
      "epoch": "2026-04-04T15:36:29.625696Z",
      "apogee_km": 484.0583876808678,
      "perigee_km": 481.8326525113498,
      "latitude_deg": -5.5709882311081975e-05,
      "longitude_deg": 144.43144649569163,
      "height_km": 482.4643578876644,
      "semi_major_axis_km": 6861.082520096109,
      "eccentricity": 0.0001622,
      "inclination_deg": 43.0027,
      "raan_deg": 211.5222,
      "arg_perigee_deg": 283.4235,
      "mean_anomaly_deg": 76.6435,
      "mean_motion_rev_day": 15.27614591
    },
    {
      "epoch": "2026-04-05T08:52:12.869760Z",
      "apogee_km": 484.1464487852445,
      "perigee_km": 481.78156449027665,
      "latitude_deg": -4.5080991205513964e-05,
      "longitude_deg": -119.27795242737886,
      "height_km": 483.8418946983375,
      "semi_major_axis_km": 6861.10100663776,
      "eccentricity": 0.00017234,
      "inclination_deg": 42.9964,
      "raan_deg": 207.4519,
      "arg_perigee_deg": 158.9711,
      "mean_anomaly_deg": 201.1211,
      "mean_motion_rev_day": 15.27608417
    },
    {
      "epoch": "2026-04-05T16:42:58.775904Z",
      "apogee_km": 483.37718610502543,
      "perigee_km": 482.261594595956,
      "latitude_deg": -3.320366146892913e-05,
      "longitude_deg": 120.86675679654972,
      "height_km": 483.1113401466493,
      "semi_major_axis_km": 6860.95639035049,
      "eccentricity": 8.13e-05,
      "inclination_deg": 42.9997,
      "raan_deg": 205.6101,
      "arg_perigee_deg": 202.2278,
      "mean_anomaly_deg": 157.8538,
      "mean_motion_rev_day": 15.27656716
    },
    {
      "epoch": "2026-04-06T00:33:45.349056Z",
      "apogee_km": 483.7344572371949,
      "perigee_km": 482.2368113885768,
      "latitude_deg": -2.147989138520907e-05,
      "longitude_deg": 1.0089790277489878,
      "height_km": 482.96560389712675,
      "semi_major_axis_km": 6861.122634312886,
      "eccentricity": 0.00010914,
      "inclination_deg": 43.0022,
      "raan_deg": 203.7686,
      "arg_perigee_deg": 254.243,
      "mean_anomaly_deg": 105.8301,
      "mean_motion_rev_day": 15.27601194
    },
    {
      "epoch": "2026-04-07T07:56:54.190464Z",
      "apogee_km": 483.8741103314942,
      "perigee_km": 482.17857964567975,
      "latitude_deg": 1.9326159113288657e-05,
      "longitude_deg": -118.45578861464938,
      "height_km": 483.41433915847307,
      "semi_major_axis_km": 6861.163344988587,
      "eccentricity": 0.00012356,
      "inclination_deg": 42.9994,
      "raan_deg": 196.3796,
      "arg_perigee_deg": 223.7964,
      "mean_anomaly_deg": 136.279,
      "mean_motion_rev_day": 15.27587598
    },
    {
      "epoch": "2026-04-08T07:29:14.884512Z",
      "apogee_km": 483.82015891156516,
      "perigee_km": 482.18062152079983,
      "latitude_deg": 1.08956547499211e-05,
      "longitude_deg": -118.04794146361039,
      "height_km": 483.257769393268,
      "semi_major_axis_km": 6861.137390216182,
      "eccentricity": 0.00011948,
      "inclination_deg": 42.999,
      "raan_deg": 190.8404,
      "arg_perigee_deg": 234.0533,
      "mean_anomaly_deg": 126.0208,
      "mean_motion_rev_day": 15.27596266
    },
    {
      "epoch": "2026-04-09T07:01:35.658048Z",
      "apogee_km": 484.0565508078189,
      "perigee_km": 482.05692450491733,
      "latitude_deg": 2.295970263922438e-05,
      "longitude_deg": -117.63770461711239,
      "height_km": 482.817545894629,
      "semi_major_axis_km": 6861.193737656368,
      "eccentricity": 0.00014572,
      "inclination_deg": 43.0022,
      "raan_deg": 185.3039,
      "arg_perigee_deg": 270.9276,
      "mean_anomaly_deg": 89.1409,
      "mean_motion_rev_day": 15.27577448
    },
    {
      "epoch": "2026-04-10T06:33:57.470976Z",
      "apogee_km": 483.8047738195073,
      "perigee_km": 482.3035451938076,
      "latitude_deg": -3.138773216373122e-05,
      "longitude_deg": -117.23598098118241,
      "height_km": 482.9343074493427,
      "semi_major_axis_km": 6861.191159506658,
      "eccentricity": 0.0001094,
      "inclination_deg": 43.0002,
      "raan_deg": 179.7633,
      "arg_perigee_deg": 262.0587,
      "mean_anomaly_deg": 98.014,
      "mean_motion_rev_day": 15.27578309
    },
    {
      "epoch": "2026-04-11T12:22:55.335072Z",
      "apogee_km": 483.8921633251948,
      "perigee_km": 482.08768694388436,
      "latitude_deg": 6.2210297184854e-05,
      "longitude_deg": 147.2842132741092,
      "height_km": 482.80652558753894,
      "semi_major_axis_km": 6861.126925134539,
      "eccentricity": 0.0001315,
      "inclination_deg": 43.0015,
      "raan_deg": 172.749,
      "arg_perigee_deg": 267.4706,
      "mean_anomaly_deg": 92.5996,
      "mean_motion_rev_day": 15.27599761
    },
    {
      "epoch": "2026-04-13T05:10:59.058048Z",
      "apogee_km": 483.7176882748281,
      "perigee_km": 482.3724849149312,
      "latitude_deg": 4.292388187535974e-05,
      "longitude_deg": -116.0100597557058,
      "height_km": 483.00126682417533,
      "semi_major_axis_km": 6861.182086594879,
      "eccentricity": 9.803e-05,
      "inclination_deg": 42.9985,
      "raan_deg": 163.1459,
      "arg_perigee_deg": 254.4715,
      "mean_anomaly_deg": 105.6029,
      "mean_motion_rev_day": 15.27581339
    },
    {
      "epoch": "2026-04-14T20:24:53.682048Z",
      "apogee_km": 484.0494506989735,
      "perigee_km": 482.0103119018513,
      "latitude_deg": -4.8567828047995654e-05,
      "longitude_deg": 4.669550001496786,
      "height_km": 482.8728923680755,
      "semi_major_axis_km": 6861.166881300413,
      "eccentricity": 0.0001486,
      "inclination_deg": 43.0014,
      "raan_deg": 153.9144,
      "arg_perigee_deg": 266.2834,
      "mean_anomaly_deg": 93.7847,
      "mean_motion_rev_day": 15.27586417
    },
    {
      "epoch": "2026-04-15T19:57:14.105664Z",
      "apogee_km": 484.15486533481726,
      "perigee_km": 481.87147455826016,
      "latitude_deg": 3.351039545402543e-05,
      "longitude_deg": 5.078528370764201,
      "height_km": 482.87768140488924,
      "semi_major_axis_km": 6861.150169946539,
      "eccentricity": 0.0001664,
      "inclination_deg": 43.0009,
      "raan_deg": 148.3751,
      "arg_perigee_deg": 265.6037,
      "mean_anomaly_deg": 94.4625,
      "mean_motion_rev_day": 15.27591998
    }
  ]
}